{"type": "FeatureCollection", "features": [ {"type": "Feature", "properties": {"norad_id": 34375, "name": "IRIDIUM 33 DEB", "group": "iridium-33-debris", "lat": 53.580072584223885, "lon": -168.79418680299656, "alt_km": 841.2933048435443, "timestamp": "2025-12-03T15:48:03.451702+00:00", "meta": {"OBJECT_NAME": "IRIDIUM 33 DEB", "OBJECT_ID": "1997-051FT", "EPOCH": "2025-12-03T01:02:45.120192", "MEAN_MOTION": 14.17964565, "ECCENTRICITY": 0.01024686, "INCLINATION": 86.4333, "RA_OF_ASC_NODE": 186.6042, "ARG_OF_PERICENTER": 157.2608, "MEAN_ANOMALY": 1.3107, "EPHEMERIS_TYPE": 0, "CLASSIFICATION_TYPE": "U", "NORAD_CAT_ID": 34375, "ELEMENT_SET_NO": 999, "REV_AT_EPOCH": 86574, "BSTAR": 0.00052219187, "MEAN_MOTION_DOT": 1.144e-05, "MEAN_MOTION_DDOT": 0}, "tle": {"line1": "1 34375U 97051FT  25337.04357778  .00001144  00000+0  52219-3 0  9996", "line2": "2 34375  86.4333 186.6042 0102468 157.2608   1.3107 14.17964565865748"}}, "geometry": {"type": "Point", "coordinates": [-168.79418680299656, 53.580072584223885]}}, {"type": "Feature", "properties": {"norad_id": 34376, "name": "IRIDIUM 33 DEB", "group": "iridium-33-debris", "lat": 54.56643591806483, "lon": 15.840973223314807, "alt_km": 695.2217675471293, "timestamp": "2025-12-03T15:48:03.451711+00:00", "meta": {"OBJECT_NAME": "IRIDIUM 33 DEB", "OBJECT_ID": "1997-051FU", "EPOCH": "2025-12-03T07:20:20.237856", "MEAN_MOTION": 14.62343372, "ECCENTRICITY": 0.00260881, "INCLINATION": 86.2996, "RA_OF_ASC_NODE": 10.7809, "ARG_OF_PERICENTER": 198.9815, "MEAN_ANOMALY": 161.0427, "EPHEMERIS_TYPE": 0, "CLASSIFICATION_TYPE": "U", "NORAD_CAT_ID": 34376, "ELEMENT_SET_NO": 999, "REV_AT_EPOCH": 87869, "BSTAR": 0.0019687734, "MEAN_MOTION_DOT": 0.00010018, "MEAN_MOTION_DDOT": 0}, "tle": {"line1": "1 34376U 97051FU  25337.30578979  .00010018  00000+0  19688-2 0  9996", "line2": "2 34376  86.2996  10.7809 0026088 198.9815 161.0427 14.62343372878699"}}, "geometry": {"type": "Point", "coordinates": [15.840973223314807, 54.56643591806483]}}, {"type": "Feature", "properties": {"norad_id": 34486, "name": "IRIDIUM 33 DEB", "group": "iridium-33-debris", "lat": -84.61254784852207, "lon": -25.74319906958734, "alt_km": 595.4013101699957, "timestamp": "2025-12-03T15:48:03.451720+00:00", "meta": {"OBJECT_NAME": "IRIDIUM 33 DEB", "OBJECT_ID": "1997-051GB", "EPOCH": "2025-12-03T03:36:18.288288", "MEAN_MOTION": 14.9509064, "ECCENTRICITY": 0.00128936, "INCLINATION": 86.3946, "RA_OF_ASC_NODE": 16.449, "ARG_OF_PERICENTER": 144.2468, "MEAN_ANOMALY": 276.3626, "EPHEMERIS_TYPE": 0, "CLASSIFICATION_TYPE": "U", "NORAD_CAT_ID": 34486, "ELEMENT_SET_NO": 999, "REV_AT_EPOCH": 88843, "BSTAR": 0.0028084086, "MEAN_MOTION_DOT": 0.0003094, "MEAN_MOTION_DDOT": 0}, "tle": {"line1": "1 34486U 97051GB  25337.15021167  .00030940  00000+0  28084-2 0  9999", "line2": "2 34486  86.3946  16.4490 0012893 144.2468 276.3626 14.95090640888430"}}, "geometry": {"type": "Point", "coordinates": [-25.74319906958734, -84.61254784852207]}}, {"type": "Feature", "properties": {"norad_id": 34487, "name": "IRIDIUM 33 DEB", "group": "iridium-33-debris", "lat": -15.977852573302682, "lon": -162.6642019643713, "alt_km": 735.1036587312337, "timestamp": "2025-12-03T15:48:03.451730+00:00", "meta": {"OBJECT_NAME": "IRIDIUM 33 DEB", "OBJECT_ID": "1997-051GC", "EPOCH": "2025-12-03T01:43:00.777792", "MEAN_MOTION": 14.43195419, "ECCENTRICITY": 0.00318714, "INCLINATION": 86.3443, "RA_OF_ASC_NODE": 16.5394, "ARG_OF_PERICENTER": 159.074, "MEAN_ANOMALY": 229.62, "EPHEMERIS_TYPE": 0, "CLASSIFICATION_TYPE": "U", "NORAD_CAT_ID": 34487, "ELEMENT_SET_NO": 999, "REV_AT_EPOCH": 88109, "BSTAR": 0.00026232115, "MEAN_MOTION_DOT": 9.07e-06, "MEAN_MOTION_DDOT": 0}, "tle": {"line1": "1 34487U 97051GC  25337.07153678  .00000907  00000+0  26232-3 0  9998", "line2": "2 34487  86.3443  16.5394 0031871 159.0740 229.6200 14.43195419881098"}}, "geometry": {"type": "Point", "coordinates": [-162.6642019643713, -15.977852573302682]}}, {"type": "Feature", "properties": {"norad_id": 34488, "name": "IRIDIUM 33 DEB", "group": "iridium-33-debris", "lat": -77.15271725120084, "lon": -66.07045968502797, "alt_km": 503.22424377691004, "timestamp": "2025-12-03T15:48:03.451739+00:00", "meta": {"OBJECT_NAME": "IRIDIUM 33 DEB", "OBJECT_ID": "1997-051GD", "EPOCH": "2025-12-02T22:49:46.136352", "MEAN_MOTION": 15.25923999, "ECCENTRICITY": 0.00156738, "INCLINATION": 86.3246, "RA_OF_ASC_NODE": 310.649, "ARG_OF_PERICENTER": 66.3953, "MEAN_ANOMALY": 293.8937, "EPHEMERIS_TYPE": 0, "CLASSIFICATION_TYPE": "U", "NORAD_CAT_ID": 34488, "ELEMENT_SET_NO": 999, "REV_AT_EPOCH": 89090, "BSTAR": 0.0055589984, "MEAN_MOTION_DOT": 0.0014559, "MEAN_MOTION_DDOT": 0}, "tle": {"line1": "1 34488U 97051GD  25336.95122843  .00145590  00000+0  55590-2 0  9991", "line2": "2 34488  86.3246 310.6490 0015673  66.3953 293.8937 15.25923999890906"}}, "geometry": {"type": "Point", "coordinates": [-66.07045968502797, -77.15271725120084]}}, {"type": "Feature", "properties": {"norad_id": 34492, "name": "IRIDIUM 33 DEB", "group": "iridium-33-debris", "lat": 39.175696254705535, "lon": 155.4182400917102, "alt_km": 885.3322410816581, "timestamp": "2025-12-03T15:48:03.451749+00:00", "meta": {"OBJECT_NAME": "IRIDIUM 33 DEB", "OBJECT_ID": "1997-051GH", "EPOCH": "2025-12-02T11:12:49.891104", "MEAN_MOTION": 14.2523388, "ECCENTRICITY": 0.01904279, "INCLINATION": 86.4708, "RA_OF_ASC_NODE": 338.7817, "ARG_OF_PERICENTER": 271.515, "MEAN_ANOMALY": 243.1192, "EPHEMERIS_TYPE": 0, "CLASSIFICATION_TYPE": "U", "NORAD_CAT_ID": 34492, "ELEMENT_SET_NO": 999, "REV_AT_EPOCH": 84912, "BSTAR": 0.0077482505, "MEAN_MOTION_DOT": 0.00022079, "MEAN_MOTION_DDOT": 0}, "tle": {"line1": "1 34492U 97051GH  25336.46724411  .00022079  00000+0  77483-2 0  9992", "line2": "2 34492  86.4708 338.7817 0190427 271.5150 243.1192 14.25233880849120"}}, "geometry": {"type": "Point", "coordinates": [155.4182400917102, 39.175696254705535]}}, {"type": "Feature", "properties": {"norad_id": 34497, "name": "IRIDIUM 33 DEB", "group": "iridium-33-debris", "lat": -41.96792138442165, "lon": 52.92450160746431, "alt_km": 770.7705452975288, "timestamp": "2025-12-03T15:48:03.451758+00:00", "meta": {"OBJECT_NAME": "IRIDIUM 33 DEB", "OBJECT_ID": "1997-051GN", "EPOCH": "2025-12-03T06:10:51.202848", "MEAN_MOTION": 14.27408211, "ECCENTRICITY": 0.00798564, "INCLINATION": 86.2784, "RA_OF_ASC_NODE": 56.4516, "ARG_OF_PERICENTER": 10.3771, "MEAN_ANOMALY": 49.8757, "EPHEMERIS_TYPE": 0, "CLASSIFICATION_TYPE": "U", "NORAD_CAT_ID": 34497, "ELEMENT_SET_NO": 999, "REV_AT_EPOCH": 86748, "BSTAR": 0.00083815475, "MEAN_MOTION_DOT": 2.144e-05, "MEAN_MOTION_DDOT": 0}, "tle": {"line1": "1 34497U 97051GN  25337.25753707  .00002144  00000+0  83815-3 0  9993", "line2": "2 34497  86.2784  56.4516 0079856  10.3771  49.8757 14.27408211867488"}}, "geometry": {"type": "Point", "coordinates": [52.92450160746431, -41.96792138442165]}}, {"type": "Feature", "properties": {"norad_id": 34508, "name": "IRIDIUM 33 DEB", "group": "iridium-33-debris", "lat": 60.461039958372986, "lon": -79.94091340057753, "alt_km": 752.5424367568876, "timestamp": "2025-12-03T15:48:03.451767+00:00", "meta": {"OBJECT_NAME": "IRIDIUM 33 DEB", "OBJECT_ID": "1997-051GZ", "EPOCH": "2025-12-03T08:33:52.369632", "MEAN_MOTION": 14.38274936, "ECCENTRICITY": 0.00654731, "INCLINATION": 86.3696, "RA_OF_ASC_NODE": 106.6197, "ARG_OF_PERICENTER": 203.4405, "MEAN_ANOMALY": 156.3806, "EPHEMERIS_TYPE": 0, "CLASSIFICATION_TYPE": "U", "NORAD_CAT_ID": 34508, "ELEMENT_SET_NO": 999, "REV_AT_EPOCH": 87174, "BSTAR": 0.0024457268, "MEAN_MOTION_DOT": 7.645e-05, "MEAN_MOTION_DDOT": 0}, "tle": {"line1": "1 34508U 97051GZ  25337.35685613  .00007645  00000+0  24457-2 0  9994", "line2": "2 34508  86.3696 106.6197 0065473 203.4405 156.3806 14.38274936871746"}}, "geometry": {"type": "Point", "coordinates": [-79.94091340057753, 60.461039958372986]}}, {"type": "Feature", "properties": {"norad_id": 34521, "name": "IRIDIUM 33 DEB", "group": "iridium-33-debris", "lat": -23.620027620547962, "lon": -143.86849869955327, "alt_km": 688.3593846746398, "timestamp": "2025-12-03T15:48:03.451777+00:00", "meta": {"OBJECT_NAME": "IRIDIUM 33 DEB", "OBJECT_ID": "1997-051HN", "EPOCH": "2025-12-03T05:01:32.531520", "MEAN_MOTION": 14.63222261, "ECCENTRICITY": 0.00011839, "INCLINATION": 86.3815, "RA_OF_ASC_NODE": 34.7432, "ARG_OF_PERICENTER": 295.1302, "MEAN_ANOMALY": 64.9787, "EPHEMERIS_TYPE": 0, "CLASSIFICATION_TYPE": "U", "NORAD_CAT_ID": 34521, "ELEMENT_SET_NO": 999, "REV_AT_EPOCH": 88333, "BSTAR": 0.0013233865, "MEAN_MOTION_DOT": 6.837e-05, "MEAN_MOTION_DDOT": 0}, "tle": {"line1": "1 34521U 97051HN  25337.20940430  .00006837  00000+0  13234-2 0  9997", "line2": "2 34521  86.3815  34.7432 0001183 295.1302  64.9787 14.63222261883331"}}, "geometry": {"type": "Point", "coordinates": [-143.86849869955327, -23.620027620547962]}}, {"type": "Feature", "properties": {"norad_id": 34525, "name": "IRIDIUM 33 DEB", "group": "iridium-33-debris", "lat": -31.031719746972453, "lon": 48.53297867982258, "alt_km": 758.9604782237429, "timestamp": "2025-12-03T15:48:03.451786+00:00", "meta": {"OBJECT_NAME": "IRIDIUM 33 DEB", "OBJECT_ID": "1997-051HS", "EPOCH": "2025-12-03T06:14:27.185568", "MEAN_MOTION": 14.42866492, "ECCENTRICITY": 0.00064293, "INCLINATION": 86.3737, "RA_OF_ASC_NODE": 50.8894, "ARG_OF_PERICENTER": 116.834, "MEAN_ANOMALY": 304.4442, "EPHEMERIS_TYPE": 0, "CLASSIFICATION_TYPE": "U", "NORAD_CAT_ID": 34525, "ELEMENT_SET_NO": 999, "REV_AT_EPOCH": 87951, "BSTAR": 0.00056850391, "MEAN_MOTION_DOT": 1.917e-05, "MEAN_MOTION_DDOT": 0}, "tle": {"line1": "1 34525U 97051HS  25337.26003687  .00001917  00000+0  56850-3 0  9997", "line2": "2 34525  86.3737  50.8894 0006429 116.8340 304.4442 14.42866492879510"}}, "geometry": {"type": "Point", "coordinates": [48.53297867982258, -31.031719746972453]}}]}